TERRA
1 25994U 99068A   15001.07615712  .00000136  00000-0  40270-4 0  9703
2 25994  98.2070  77.9701 0001307 109.3154 250.8085 14.57122574799889

